GLOBALSTAR M063         
1 26081U 00008A   26005.25174613 -.00000028  00000+0  80020-3 0  9990
2 26081  51.9974 299.4033 0004942 347.7874 165.9019 11.86179064181557
GLOBALSTAR M062         
1 26082U 00008B   26005.30644700  .00000009  00000+0  76756-3 0  9995
2 26082  51.9823 221.4037 0006895 174.5829 356.2438 12.43481502521763
GLOBALSTAR M060         
1 26083U 00008C   26005.01707854 -.00000130  00000+0 -39315-3 0  9991
2 26083  51.9990 210.8187 0003330 154.0493   2.2205 12.17671926176957
GLOBALSTAR M064         
1 26084U 00008D   26005.31828691 -.00000073  00000+0  14171-3 0  9996
2 26084  52.0053  35.6722 0001624  94.4050 265.6969 11.88539803191131
GLOBALSTAR M065         
1 31571U 07020A   26005.28425403 -.00000029  00000+0  41611-3 0  9994
2 31571  51.9913 331.1420 0010406  36.8602 112.0416 12.62016509858926
GLOBALSTAR M069         
1 31573U 07020C   26005.27724037 -.00000063  00000+0  27072-3 0  9993
2 31573  52.0057 353.2241 0001727 166.6032 207.6358 12.23465862858866
GLOBALSTAR M072         
1 31574U 07020D   26005.18398616 -.00000098  00000+0 -19112-3 0  9999
2 31574  51.9906 174.2044 0001474  47.0296 124.5177 11.91655031855544
GLOBALSTAR M071         
1 31576U 07020F   26005.12223913 -.00000048  00000+0  42769-3 0  9990
2 31576  52.0081  24.9730 0001035 150.5530 251.8379 12.18263337519559
